{"spkid": "54289177", "covariance": {"labels": ["e", "q", "tp", "node", "peri", "i"], "elements": [{"label": "e", "sigma": 9.0682281492369e-06, "name": "e", "units": null, "title": "eccentricity", "value": ".184996604596242"}, {"name": "q", "sigma": 9.65903042574915e-06, "units": "au", "title": "perihelion distance", "value": ".8028298655171252", "label": "q"}, {"label": "tp", "units": "TDB", "value": "2460014.774406011788", "title": "time of perihelion passage", "sigma": 0.000429934108469489, "name": "tp"}, {"label": "node", "units": "deg", "title": "longitude of the ascending node", "value": "163.1167730186678", "sigma": 0.000542808191898058, "name": "om"}, {"title": "argument of perihelion", "value": "351.4033268300521", "units": "deg", "sigma": 0.000637823047185545, "name": "w", "label": "peri"}, {"label": "i", "sigma": 4.6734920539004e-05, "name": "i", "title": "inclination", "value": "1.072261925210633", "units": "deg"}], "data": [["8.223276176661248E-11", "-8.759014884882683E-11", "3.664911290690281E-9", "2.950959202173392E-10", "-2.483034558494169E-9", "4.095667811602457E-10"], ["-8.759014884882683E-11", "9.329686876554776E-11", "-3.90131857987988E-9", "-3.158124823791445E-10", "2.648278285697048E-9", "-4.364270192465082E-10"], ["3.664911290690281E-9", "-3.90131857987988E-9", "1.848433376254543E-7", "-2.696583127226045E-10", "-7.89578201630225E-8", "1.659911676975354E-8"], ["2.950959202173392E-10", "-3.158124823791445E-10", "-2.696583127226045E-10", "2.946407331916391E-7", "-3.138464272432589E-7", "4.084135280514134E-10"], ["-2.483034558494169E-9", "2.648278285697048E-9", "-7.89578201630225E-8", "-3.138464272432589E-7", "4.068182395210539E-7", "-1.271401978291729E-8"], ["4.095667811602457E-10", "-4.364270192465082E-10", "1.659911676975354E-8", "4.084135280514134E-10", "-1.271401978291729E-8", "2.184152797787015E-9"]], "epoch": "2459844.5"}, "elements": [{"label": "e", "name": "e", "sigma": "9.0491E-6", "units": null, "value": ".1849745088005948", "title": "eccentricity"}, {"sigma": "8.7528E-7", "name": "a", "value": ".9848431733700653", "title": "semi-major axis", "units": "au", "label": "a"}, {"label": "q", "sigma": "9.6252E-6", "name": "q", "units": "au", "value": ".8026722911303185", "title": "perihelion distance"}, {"units": "deg", "value": "1.073271223583786", "title": "inclination; angle with respect to x-y ecliptic plane", "sigma": "4.6646E-5", "name": "i", "label": "i"}, {"label": "node", "title": "longitude of the ascending node", "value": "162.9180156162988", "units": "deg", "sigma": ".00054465", "name": "om"}, {"label": "peri", "sigma": ".00061658", "name": "w", "units": "deg", "title": "argument of perihelion", "value": "351.0540729343616"}, {"name": "ma", "sigma": ".0011089", "units": "deg", "title": "mean anomaly", "value": "116.3539746351917", "label": "M"}, {"label": "tp", "value": "2461085.120735089954", "title": "time of perihelion passage", "units": "TDB", "name": "tp", "sigma": ".00094772"}, {"label": "period", "sigma": ".00047591", "name": "per", "units": "d", "title": "sidereal orbital period", "value": "356.9842413879477"}, {"units": "deg/d", "title": "mean motion", "value": "1.008447876019197", "name": "n", "sigma": "1.3444E-6", "label": "n"}, {"label": "Q", "sigma": "1.0372E-6", "name": "ad", "value": "1.167014055609812", "title": "aphelion distance", "units": "au"}], "epoch": "2461200.5"}